NORAD_CAT_ID,OBJECT_NAME,OBJECT_TYPE,EPOCH,MEAN_MOTION,ECCENTRICITY,INCLINATION,RA_OF_ASC_NODE,ARG_OF_PERICENTER,MEAN_ANOMALY,BSTAR,MEAN_MOTION_DOT,MEAN_MOTION_DDOT,TLE_LINE0,TLE_LINE1,TLE_LINE2,SEMIMAJOR_AXIS,PERIOD,APOGEE,PERIGEE,DECAYED
52604.0,STARLINK-4013,PAYLOAD,2023-04-10 04:16:06,15.08849498,0.0001568,53.2188,17.8973,99.5685,260.5484,0.00035395,5.351e-05,0.0,0 STARLINK-4013,1 52604U 22052G   23100.17785438  .00005351  00000-0  35395-3 0  9999,2 52604  53.2188  17.8973 0001568  99.5685 260.5484 15.08849498 50159,6917.851,95.437,540.801,538.632,0.0
52604.0,STARLINK-4013,PAYLOAD,2023-04-11 00:56:07,15.08839661,0.0001531,53.2182,14.0309,98.6979,261.4187,9.6036e-05,1.241e-05,0.0,0 STARLINK-4013,1 52604U 22052G   23101.03897826  .00001241  00000-0  96036-4 0  9994,2 52604  53.2182  14.0309 0001531  98.6979 261.4187 15.08839661 50657,6917.881,95.438,540.806,538.687,0.0
52604.0,STARLINK-4013,PAYLOAD,2023-04-11 04:06:53,15.0883983,0.0001527,53.2182,13.437,95.6388,264.4778,9.9942e-05,1.303e-05,0.0,0 STARLINK-4013,1 52604U 22052G   23101.17145768  .00001303  00000-0  99942-4 0  9998,2 52604  53.2182  13.4370 0001527  95.6388 264.4778 15.08839830 50303,6917.881,95.438,540.802,538.69,0.0
52604.0,STARLINK-4013,PAYLOAD,2023-04-11 21:36:08,15.08837502,0.0001472,53.2184,10.1647,104.4083,255.7072,2.658e-05,1.35e-06,0.0,0 STARLINK-4013,1 52604U 22052G   23101.90010123  .00000135  00000-0  26580-4 0  9995,2 52604  53.2184  10.1647 0001472 104.4083 255.7072 15.08837502 50412,6917.888,95.438,540.771,538.735,0.0
52604.0,STARLINK-4013,PAYLOAD,2023-04-12 02:22:17,15.08844225,0.0001226,53.2181,9.2776,78.9244,281.1886,6.2085e-05,7e-06,0.0,0 STARLINK-4013,1 52604U 22052G   23102.09881755  .00000700  00000-0  62085-4 0  9991,2 52604  53.2181   9.2776 0001226  78.9244 281.1886 15.08844225 50441,6917.867,95.437,540.581,538.884,0.0
52604.0,STARLINK-4013,PAYLOAD,2023-04-13 00:37:42,15.08842396,0.000124,53.2184,5.1152,77.1982,282.9149,6.669e-05,7.74e-06,0.0,0 STARLINK-4013,1 52604U 22052G   23103.02618119  .00000774  00000-0  66690-4 0  9994,2 52604  53.2184   5.1152 0001240  77.1982 282.9149 15.08842396 50957,6917.873,95.437,540.596,538.88,0.0
52604.0,STARLINK-4013,PAYLOAD,2023-04-13 03:48:28,15.08845296,0.0001382,53.2183,4.5185,81.5705,278.5444,0.00011544,1.55e-05,0.0,0 STARLINK-4013,1 52604U 22052G   23103.15865822  .00001550  00000-0  11544-3 0  9993,2 52604  53.2183   4.5185 0001382  81.5705 278.5444 15.08845296 50607,6917.864,95.437,540.685,538.773,0.0
52604.0,STARLINK-4013,PAYLOAD,2023-04-14 02:03:51,15.0884951,0.0001275,53.2183,0.3562,79.8332,280.2804,0.0001148,1.54e-05,0.0,0 STARLINK-4013,1 52604U 22052G   23104.08601611  .00001540  00000-0  11480-3 0  9998,2 52604  53.2183   0.3562 0001275  79.8332 280.2804 15.08849510 51117,6917.851,95.437,540.598,538.834,0.0
52604.0,STARLINK-4013,PAYLOAD,2023-04-15 01:54:38,15.08849552,0.0001317,53.218,355.8949,88.1877,271.9266,0.00023604,3.472e-05,0.0,0 STARLINK-4013,1 52604U 22052G   23105.07961679  .00003472  00000-0  23604-3 0  9998,2 52604  53.2180 355.8949 0001317  88.1877 271.9266 15.08849552 51266,6917.851,95.437,540.627,538.805,0.0
52604.0,STARLINK-4013,PAYLOAD,2023-04-15 03:30:01,15.08851737,0.0001276,53.2178,355.5972,89.4835,270.6303,0.00028208,4.206e-05,0.0,0 STARLINK-4013,1 52604U 22052G   23105.14585581  .00004206  00000-0  28208-3 0  9991,2 52604  53.2178 355.5972 0001276  89.4835 270.6303 15.08851737 50904,6917.845,95.437,540.592,538.827,0.0
52604.0,STARLINK-4013,PAYLOAD,2023-04-15 20:59:16,15.08838252,0.0001466,53.2175,352.324,96.7449,263.371,0.00010003,1.304e-05,0.0,0 STARLINK-4013,1 52604U 22052G   23105.87450149  .00001304  00000-0  10003-3 0  9992,2 52604  53.2175 352.3240 0001466  96.7449 263.3710 15.08838252 51018,6917.886,95.438,540.765,538.737,0.0
52604.0,STARLINK-4013,PAYLOAD,2023-04-16 01:45:26,15.08845406,0.0001163,53.2181,351.4315,105.9685,254.1435,0.0003253,4.894e-05,0.0,0 STARLINK-4013,1 52604U 22052G   23106.07321953  .00004894  00000-0  32530-3 0  9991,2 52604  53.2181 351.4315 0001163 105.9685 254.1435 15.08845406 51412,6917.864,95.437,540.533,538.924,0.0
52604.0,STARLINK-4013,PAYLOAD,2023-04-16 16:03:54,15.08833872,0.0001222,53.218,348.758,82.7886,277.3245,0.0001891,2.722e-05,0.0,0 STARLINK-4013,1 52604U 22052G   23106.66938650  .00002722  00000-0  18910-3 0  9998,2 52604  53.2180 348.7580 0001222  82.7886 277.3245 15.08833872 51505,6917.899,95.438,540.609,538.919,0.0
52604.0,STARLINK-4013,PAYLOAD,2023-04-16 22:25:27,15.0884128,0.0001235,53.2174,347.5687,79.2235,280.8897,0.00027896,4.155e-05,0.0,0 STARLINK-4013,1 52604U 22052G   23106.93434613  .00004155  00000-0  27896-3 0  9993,2 52604  53.2174 347.5687 0001235  79.2235 280.8897 15.08841280 51173,6917.876,95.437,540.596,538.887,0.0
52604.0,STARLINK-4013,PAYLOAD,2023-04-17 01:36:13,15.08843836,0.0001205,53.2177,346.9739,80.8252,279.2876,0.00041581,6.337e-05,0.0,0 STARLINK-4013,1 52604U 22052G   23107.06682604  .00006337  00000-0  41581-3 0  9994,2 52604  53.2177 346.9739 0001205  80.8252 279.2876 15.08843836 51191,6917.869,95.437,540.567,538.9,0.0
52604.0,STARLINK-4013,PAYLOAD,2023-04-17 20:40:51,15.08845798,0.000121,53.2164,343.407,60.12,299.9913,0.0002939,4.393e-05,0.0,0 STARLINK-4013,1 52604U 22052G   23107.86170839  .00004393  00000-0  29390-3 0  9998,2 52604  53.2164 343.4070 0001210  60.1200 299.9913 15.08845798 51311,6917.863,95.437,540.565,538.891,0.0
52604.0,STARLINK-4013,PAYLOAD,2023-04-18 01:27:00,15.08850208,0.0001221,53.2164,342.5144,65.5294,294.5826,0.00038936,5.916e-05,0.0,0 STARLINK-4013,1 52604U 22052G   23108.06042651  .00005916  00000-0  38936-3 0  9999,2 52604  53.2164 342.5144 0001221  65.5294 294.5826 15.08850208 51346,6917.849,95.437,540.559,538.87,0.0
52604.0,STARLINK-4013,PAYLOAD,2023-04-19 01:17:47,15.08852982,0.0001088,53.2177,338.0538,74.1561,285.9551,0.00028279,4.217e-05,0.0,0 STARLINK-4013,1 52604U 22052G   23109.05402252  .00004217  00000-0  28279-3 0  9998,2 52604  53.2177 338.0538 0001088  74.1561 285.9551 15.08852982 51868,6917.841,95.437,540.458,538.953,0.0
52604.0,STARLINK-4013,PAYLOAD,2023-04-20 13:51:40,15.08834086,0.0001359,53.2179,331.2145,85.5513,274.5635,-4.0462e-05,-9.32e-06,0.0,0 STARLINK-4013,1 52604U 22052G   23110.57754685 -.00000932  00000-0 -40462-4 0  9998,2 52604  53.2179 331.2145 0001359  85.5513 274.5635 15.08834086 51720,6917.898,95.438,540.704,538.823,0.0
52604.0,STARLINK-4013,PAYLOAD,2023-04-20 21:48:35,15.08836642,0.0001508,53.2175,329.7279,90.3817,269.7348,0.00018,2.578e-05,0.0,0 STARLINK-4013,1 52604U 22052G   23110.90874836  .00002578  00000-0  18000-3 0  9994,2 52604  53.2175 329.7279 0001508  90.3817 269.7348 15.08836642 51775,6917.891,95.438,540.799,538.712,0.0
52604.0,STARLINK-4013,PAYLOAD,2023-04-21 13:42:27,15.08838697,0.000118,53.2175,326.7556,100.1209,259.9916,0.00027312,4.061e-05,0.0,0 STARLINK-4013,1 52604U 22052G   23111.57115117  .00004061  00000-0  27312-3 0  9993,2 52604  53.2175 326.7556 0001180 100.1209 259.9916 15.08838697 51876,6917.884,95.438,540.566,538.933,0.0
52604.0,STARLINK-4013,PAYLOAD,2023-04-21 15:17:50,15.08837793,0.0001204,53.2177,326.4581,102.1026,258.0101,0.00026549,3.94e-05,0.0,0 STARLINK-4013,1 52604U 22052G   23111.63739178  .00003940  00000-0  26549-3 0  9995,2 52604  53.2177 326.4581 0001204 102.1026 258.0101 15.08837793 52254,6917.887,95.438,540.585,538.919,0.0
52604.0,STARLINK-4013,PAYLOAD,2023-04-21 23:14:46,15.08847029,0.0001177,53.2169,324.9707,96.0565,264.0561,0.00050558,7.769e-05,0.0,0 STARLINK-4013,1 52604U 22052G   23111.96859017  .00007769  00000-0  50558-3 0  9996,2 52604  53.2169 324.9707 0001177  96.0565 264.0561 15.08847029 52302,6917.859,95.437,540.538,538.91,0.0
52604.0,STARLINK-4013,PAYLOAD,2023-04-22 13:33:14,15.08843685,0.0001177,53.2162,322.2943,96.9596,263.153,0.00024707,3.647e-05,0.0,0 STARLINK-4013,1 52604U 22052G   23112.56475070  .00003647  00000-0  24707-3 0  9994,2 52604  53.2162 322.2943 0001177  96.9596 263.1530 15.08843685 52020,6917.869,95.437,540.548,538.92,0.0
52604.0,STARLINK-4013,PAYLOAD,2023-04-22 15:08:37,15.08842566,0.0001226,53.2173,321.9975,102.2519,257.861,0.00024248,3.574e-05,0.0,0 STARLINK-4013,1 52604U 22052G   23112.63099124  .00003574  00000-0  24248-3 0  9993,2 52604  53.2173 321.9975 0001226 102.2519 257.8610 15.08842566 52402,6917.873,95.437,540.586,538.889,0.0
52604.0,STARLINK-4013,PAYLOAD,2023-04-23 13:24:01,15.08838802,0.0001257,53.218,317.8345,91.6911,268.4226,7.3936e-05,8.89e-06,0.0,0 STARLINK-4013,1 52604U 22052G   23113.55835361  .00000889  00000-0  73936-4 0  9991,2 52604  53.2180 317.8345 0001257  91.6911 268.4226 15.08838802 52179,6917.884,95.438,540.619,538.879,0.0
52604.0,STARLINK-4013,PAYLOAD,2023-04-23 16:34:47,15.08840048,0.0001137,53.2179,317.2399,98.8985,261.2136,9.3004e-05,1.193e-05,0.0,0 STARLINK-4013,1 52604U 22052G   23113.69083268  .00001193  00000-0  93004-4 0  9994,2 52604  53.2179 317.2399 0001137  98.8985 261.2136 15.08840048 52566,6917.88,95.438,540.532,538.959,0.0
52604.0,STARLINK-4013,PAYLOAD,2023-04-23 19:45:34,15.08844176,0.0001168,53.2176,316.6448,99.7676,260.3448,0.00018125,2.598e-05,0.0,0 STARLINK-4013,1 52604U 22052G   23113.82331157  .00002598  00000-0  18125-3 0  9992,2 52604  53.2176 316.6448 0001168  99.7676 260.3448 15.08844176 52216,6917.868,95.437,540.541,538.925,0.0
52604.0,STARLINK-4013,PAYLOAD,2023-04-25 13:05:35,15.08824255,0.0001325,53.2168,308.9126,104.1295,255.9844,-0.00076217,-0.00012392,0.0,0 STARLINK-4013,1 52604U 22052G   23115.54554426 -.00012392  00000-0 -76217-3 0  9990,2 52604  53.2168 308.9126 0001325 104.1295 255.9844 15.08824255 52471,6917.929,95.439,540.71,538.877,0.0
52604.0,STARLINK-4013,PAYLOAD,2023-04-26 00:13:17,15.0881109,0.0001164,53.2167,306.8298,120.4101,239.7006,-5.7225e-05,-1.198e-05,0.0,0 STARLINK-4013,1 52604U 22052G   23116.00923544 -.00001198  00000-0 -57225-4 0  9994,2 52604  53.2167 306.8298 0001164 120.4101 239.7006 15.08811090 52546,6917.969,95.439,540.639,539.029,0.0
